[{"OBJECT_NAME":"STARLINK-3521","OBJECT_ID":"2022-016AE","EPOCH":"2026-03-09T23:25:25.862592","MEAN_MOTION":15.08832872,"ECCENTRICITY":0.0001343,"INCLINATION":53.2193,"RA_OF_ASC_NODE":318.0267,"ARG_OF_PERICENTER":102.0093,"MEAN_ANOMALY":258.105,"EPHEMERIS_TYPE":0,"CLASSIFICATION_TYPE":"U","NORAD_CAT_ID":51742,"ELEMENT_SET_NO":999,"REV_AT_EPOCH":22360,"BSTAR":-2.4279645e-5,"MEAN_MOTION_DOT":-6.74e-6,"MEAN_MOTION_DDOT":0},{"OBJECT_NAME":"CZ-6A DEB","OBJECT_ID":"2022-151KB","EPOCH":"2026-03-09T19:20:41.637408","MEAN_MOTION":14.94061736,"ECCENTRICITY":0.0071589,"INCLINATION":98.7004,"RA_OF_ASC_NODE":166.2159,"ARG_OF_PERICENTER":166.3306,"MEAN_ANOMALY":193.9872,"EPHEMERIS_TYPE":0,"CLASSIFICATION_TYPE":"U","NORAD_CAT_ID":54523,"ELEMENT_SET_NO":999,"REV_AT_EPOCH":17710,"BSTAR":0.0044467837,"MEAN_MOTION_DOT":0.00050189,"MEAN_MOTION_DDOT":0}]
